OBJECT_NAME,OBJECT_ID,EPOCH,MEAN_MOTION,ECCENTRICITY,INCLINATION,RA_OF_ASC_NODE,ARG_OF_PERICENTER,MEAN_ANOMALY,EPHEMERIS_TYPE,CLASSIFICATION_TYPE,NORAD_CAT_ID,ELEMENT_SET_NO,REV_AT_EPOCH,BSTAR,MEAN_MOTION_DOT,MEAN_MOTION_DDOT
BEIDOU-2 G1,2010-001A,2026-03-01T13:16:37.737120,1.00271809,.0004776,4.0407,60.6864,273.4410,164.8413,0,U,36287,999,5909,0,-.296E-5,0
SDO,2010-005A,2026-02-26T15:09:41.472864,1.00275115,.0000464,34.4177,88.0171,94.7218,99.1943,0,U,36395,999,5895,0,-.87E-6,0
INTELSAT 16 (IS-16),2010-006A,2026-03-01T10:22:10.517088,1.00263610,.0001836,0.0228,132.8336,213.3485,252.4074,0,U,36397,999,5857,0,0,0
EWS-G2 (GOES 15),2010-008A,2026-03-01T11:59:53.009376,1.00268747,.0001592,1.0016,85.1993,25.3190,292.2522,0,U,36411,999,5855,0,.3E-7,0
ECHOSTAR 14,2010-010A,2026-03-01T09:41:38.292288,1.00270227,.0002094,0.0245,148.2731,196.9082,200.5477,0,U,36499,999,4547,0,0,0
SES-1,2010-016A,2026-03-01T10:15:03.699360,1.00272324,.0002629,0.0584,287.9010,39.6832,244.3840,0,U,36516,999,5795,0,-.133E-5,0
ASTRA 3B,2010-021A,2026-03-01T07:25:12.484128,1.00270287,.0002982,1.1893,84.9852,275.8627,293.0518,0,U,36581,999,5778,0,.119E-5,0
COMSATBW-2,2010-021B,2026-03-01T08:50:38.692032,1.00271412,.0002583,0.0354,206.9902,140.9478,317.0369,0,U,36582,999,5787,0,.7E-6,0
BEIDOU-2 G3,2010-024A,2026-02-28T23:07:49.262304,1.00269927,.0007632,4.2586,61.9358,318.5929,204.7535,0,U,36590,999,5768,0,-.151E-5,0
BADR-5,2010-025A,2026-03-01T07:25:57.412128,1.00271647,.000149,0.0606,111.5776,267.4986,277.4629,0,U,36592,999,5213,0,.126E-5,0
COMS 1,2010-032A,2026-03-01T11:04:38.776224,1.00272992,.0001177,4.5285,76.9161,262.3700,114.2871,0,U,36744,999,5001,0,-.361E-5,0
ARABSAT-5A,2010-032B,2026-03-01T07:27:12.293280,1.00269257,.0002715,0.0652,48.3937,317.2091,295.7997,0,U,36745,999,5756,0,.135E-5,0
ECHOSTAR 15,2010-034A,2026-03-01T12:19:28.675776,1.00269607,.00023,0.0577,278.3031,40.4413,266.6240,0,U,36792,999,5724,0,-.18E-6,0
BEIDOU-2 IGSO-1,2010-036A,2026-02-28T19:17:13.290720,1.00252838,.00539202,54.2920,163.9431,219.0373,170.2747,0,U,36828,999,5701,0,-.169E-5,0
NILESAT 201,2010-037A,2026-03-01T08:59:10.974048,1.00272015,.0003014,0.0239,197.1748,146.3323,303.4143,0,U,36830,999,5729,0,-.76E-6,0
RASCOM-QAF 1R,2010-037B,2026-03-01T07:19:20.546688,1.00270441,.0006589,0.0225,130.7571,203.3887,297.6799,0,U,36831,999,5722,0,0,0
AEHF-1 (USA 214),2010-039A,2026-03-01T05:44:14.664768,1.00276792,.0004469,7.9550,69.4527,258.4470,307.2075,0,U,36868,999,5257,0,.133E-5,0
XM-5,2010-053A,2026-03-01T11:48:43.577856,1.00279892,.0002811,0.0690,275.1966,273.9943,32.0778,0,U,37185,999,5640,0,-.43E-6,0
BSAT-3B,2010-056B,2026-03-01T09:32:30.278688,1.00271656,.0002234,0.0919,251.0240,27.0623,134.0644,0,U,37207,999,5101,0,-.368E-5,0
BEIDOU-2 G4,2010-057A,2026-03-01T12:16:34.660992,1.00271933,.0009285,3.3789,69.5594,209.6924,224.1944,0,U,37210,999,5621,0,-.129E-5,0
SKYTERRA 1,2010-061A,2026-03-01T09:32:44.683296,1.00271277,.0001622,4.8958,50.9139,282.3663,227.7600,0,U,37218,999,5611,0,-.134E-5,0
HYLAS 1,2010-065A,2026-03-01T08:59:48.413760,1.00649309,.0002813,5.3698,74.3440,327.0319,247.9497,0,U,37237,999,580,0,.8E-7,0
INTELSAT 17 (IS-17),2010-065B,2026-03-01T09:19:46.500096,1.00271543,.0002434,0.0140,160.8334,183.8879,20.3940,0,U,37238,999,5216,0,-.2E-6,0
BEIDOU-2 IGSO-2,2010-068A,2026-02-27T08:26:36.872160,1.00260216,.00473789,47.7414,273.1895,212.9968,264.9944,0,U,37256,999,5569,0,-.158E-5,0
EUTELSAT KA-SAT 9A,2010-069A,2026-03-01T08:50:38.692032,1.00271401,.0002663,0.0566,354.4628,144.7931,161.5657,0,U,37258,999,4292,0,.43E-6,0
HISPASAT 30W-5,2010-070A,2026-03-01T10:35:16.759680,1.00270367,.0003268,0.0272,122.3619,229.8085,295.8658,0,U,37264,999,5210,0,-.235E-5,0
KOREASAT 6,2010-070B,2026-03-01T09:24:12.773664,1.00271979,.0002381,0.0168,123.6768,204.8334,131.5959,0,U,37265,999,5569,0,-.13E-5,0
BEIDOU-2 IGSO-3,2011-013A,2026-02-27T21:48:44.352288,1.00294022,.00350296,62.2642,41.1818,190.8154,358.7681,0,U,37384,999,5456,0,-.154E-5,0
INTELSAT 28 (IS-28),2011-016A,2026-03-01T10:30:38.607840,1.00270727,.0004536,1.5276,84.0238,252.2076,308.9406,0,U,37392,999,5220,0,-.243E-5,0
YAHSAT 1A,2011-016B,2026-03-01T10:58:51.998592,1.00270851,.0003355,0.0035,166.3223,181.4763,28.6543,0,U,37393,999,4132,0,.83E-6,0
SBIRS GEO-1 (USA 230),2011-019A,2026-03-01T10:58:44.510304,1.00272086,.0002282,4.2990,53.0912,288.6976,33.9443,0,U,37481,999,5431,0,.84E-6,0
TELSTAR 14R,2011-021A,2026-03-01T10:25:55.157952,1.00271362,.0002423,0.0428,274.3169,72.8960,265.4666,0,U,37602,999,5475,0,-.298E-5,0
