BEIDOU-2 G1             
1 36287U 10001A   26060.55321455 -.00000296  00000+0  00000+0 0  9998
2 36287   4.0407  60.6864 0004776 273.4410 164.8413  1.00271809 59096
SDO                     
1 36395U 10005A   26057.63173001 -.00000087  00000+0  00000+0 0  9997
2 36395  34.4177  88.0171 0000464  94.7218  99.1943  1.00275115 58958
INTELSAT 16 (IS-16)     
1 36397U 10006A   26060.43206617  .00000000  00000+0  00000+0 0  9996
2 36397   0.0228 132.8336 0001836 213.3485 252.4074  1.00263610 58570
EWS-G2 (GOES 15)        
1 36411U 10008A   26060.49991909  .00000003  00000+0  00000+0 0  9999
2 36411   1.0016  85.1993 0001592  25.3190 292.2522  1.00268747 58559
ECHOSTAR 14             
1 36499U 10010A   26060.40391542  .00000000  00000+0  00000+0 0  9993
2 36499   0.0245 148.2731 0002094 196.9082 200.5477  1.00270227 45476
SES-1                   
1 36516U 10016A   26060.42712615 -.00000133  00000+0  00000+0 0  9997
2 36516   0.0584 287.9010 0002629  39.6832 244.3840  1.00272324 57959
ASTRA 3B                
1 36581U 10021A   26060.30917227  .00000119  00000+0  00000+0 0  9991
2 36581   1.1893  84.9852 0002982 275.8627 293.0518  1.00270287 57783
COMSATBW-2              
1 36582U 10021B   26060.36850338  .00000070  00000+0  00000+0 0  9993
2 36582   0.0354 206.9902 0002583 140.9478 317.0369  1.00271412 57871
BEIDOU-2 G3             
1 36590U 10024A   26059.96376461 -.00000151  00000+0  00000+0 0  9990
2 36590   4.2586  61.9358 0007632 318.5929 204.7535  1.00269927 57685
BADR-5                  
1 36592U 10025A   26060.30969227  .00000126  00000+0  00000+0 0  9992
2 36592   0.0606 111.5776 0001490 267.4986 277.4629  1.00271647 52139
COMS 1                  
1 36744U 10032A   26060.46155991 -.00000361  00000+0  00000+0 0  9993
2 36744   4.5285  76.9161 0001177 262.3700 114.2871  1.00272992 50018
ARABSAT-5A              
1 36745U 10032B   26060.31055895  .00000135  00000+0  00000+0 0  9998
2 36745   0.0652  48.3937 0002715 317.2091 295.7997  1.00269257 57565
ECHOSTAR 15             
1 36792U 10034A   26060.51352634 -.00000018  00000+0  00000+0 0  9996
2 36792   0.0577 278.3031 0002300  40.4413 266.6240  1.00269607 57248
BEIDOU-2 IGSO-1         
1 36828U 10036A   26059.80362605 -.00000169  00000+0  00000+0 0  9994
2 36828  54.2920 163.9431 0053920 219.0373 170.2747  1.00252838 57012
NILESAT 201             
1 36830U 10037A   26060.37443257 -.00000076  00000+0  00000+0 0  9992
2 36830   0.0239 197.1748 0003014 146.3323 303.4143  1.00272015 57292
RASCOM-QAF 1R           
1 36831U 10037B   26060.30509892  .00000000  00000+0  00000+0 0  9990
2 36831   0.0225 130.7571 0006589 203.3887 297.6799  1.00270441 57229
AEHF-1 (USA 214)        
1 36868U 10039A   26060.23905862  .00000133  00000+0  00000+0 0  9998
2 36868   7.9550  69.4527 0004469 258.4470 307.2075  1.00276792 52572
XM-5                    
1 37185U 10053A   26060.49217104 -.00000043  00000+0  00000+0 0  9991
2 37185   0.0690 275.1966 0002811 273.9943  32.0778  1.00279892 56406
BSAT-3B                 
1 37207U 10056B   26060.39757267 -.00000368  00000+0  00000+0 0  9997
2 37207   0.0919 251.0240 0002234  27.0623 134.0644  1.00271656 51012
BEIDOU-2 G4             
1 37210U 10057A   26060.51151228 -.00000129  00000+0  00000+0 0  9996
2 37210   3.3789  69.5594 0009285 209.6924 224.1944  1.00271933 56215
SKYTERRA 1              
1 37218U 10061A   26060.39773939 -.00000134  00000+0  00000+0 0  9990
2 37218   4.8958  50.9139 0001622 282.3663 227.7600  1.00271277 56119
HYLAS 1                 
1 37237U 10065A   26060.37486590  .00000008  00000+0  00000+0 0  9996
2 37237   5.3698  74.3440 0002813 327.0319 247.9497  1.00649309  5803
INTELSAT 17 (IS-17)     
1 37238U 10065B   26060.38873264 -.00000020  00000+0  00000+0 0  9991
2 37238   0.0140 160.8334 0002434 183.8879  20.3940  1.00271543 52167
BEIDOU-2 IGSO-2         
1 37256U 10068A   26058.35181565 -.00000158  00000+0  00000+0 0  9996
2 37256  47.7414 273.1895 0047378 212.9968 264.9944  1.00260216 55694
EUTELSAT KA-SAT 9A      
1 37258U 10069A   26060.36850338  .00000043  00000+0  00000+0 0  9996
2 37258   0.0566 354.4628 0002663 144.7931 161.5657  1.00271401 42926
HISPASAT 30W-5          
1 37264U 10070A   26060.44116620 -.00000235  00000+0  00000+0 0  9997
2 37264   0.0272 122.3619 0003268 229.8085 295.8658  1.00270367 52109
KOREASAT 6              
1 37265U 10070B   26060.39181451 -.00000130  00000+0  00000+0 0  9990
2 37265   0.0168 123.6768 0002381 204.8334 131.5959  1.00271979 55695
BEIDOU-2 IGSO-3         
1 37384U 11013A   26058.90884667 -.00000154  00000+0  00000+0 0  9999
2 37384  62.2642  41.1818 0035029 190.8154 358.7681  1.00294022 54567
INTELSAT 28 (IS-28)     
1 37392U 11016A   26060.43794685 -.00000243  00000+0  00000+0 0  9991
2 37392   1.5276  84.0238 0004536 252.2076 308.9406  1.00270727 52209
YAHSAT 1A               
1 37393U 11016B   26060.45754628  .00000083  00000+0  00000+0 0  9998
2 37393   0.0035 166.3223 0003355 181.4763  28.6543  1.00270851 41326
SBIRS GEO-1 (USA 230)   
1 37481U 11019A   26060.45745961  .00000084  00000+0  00000+0 0  9990
2 37481   4.2990  53.0912 0002282 288.6976  33.9443  1.00272086 54314
TELSTAR 14R             
1 37602U 11021A   26060.43466618 -.00000298  00000+0  00000+0 0  9993
2 37602   0.0428 274.3169 0002423  72.8960 265.4666  1.00271362 54757
